OBJECT_NAME,OBJECT_ID,EPOCH,MEAN_MOTION,ECCENTRICITY,INCLINATION,RA_OF_ASC_NODE,ARG_OF_PERICENTER,MEAN_ANOMALY,EPHEMERIS_TYPE,CLASSIFICATION_TYPE,NORAD_CAT_ID,ELEMENT_SET_NO,REV_AT_EPOCH,BSTAR,MEAN_MOTION_DOT,MEAN_MOTION_DDOT
STARLINK-30223,2023-119B,2024-09-27T18:46:30.681120,15.02537064,.0001358,43.0040,70.2062,273.9156,86.1531,0,U,57603,999,6366,.22084E-3,.2781E-4,0
STARLINK-30218,2023-119C,2024-09-27T18:56:06.622656,15.02533401,.0001649,43.0039,70.2703,261.8689,98.1966,0,U,57604,999,6367,.19347E-3,.241E-4,0
STARLINK-30138,2023-119D,2024-09-27T18:51:19.018656,15.02533209,.0001371,43.0040,70.2465,267.4136,92.6549,0,U,57605,999,6367,.12015E-3,.142E-4,0
STARLINK-30255,2023-119E,2024-09-27T18:11:21.423840,15.02537180,.0001313,43.0019,70.0415,278.5418,81.5275,0,U,57606,999,6367,.46639E-4,.426E-5,0
STARLINK-30252,2023-119F,2024-09-27T17:30:23.431104,15.02538229,.000124,43.0036,57.9467,265.7267,94.3433,0,U,57607,999,6381,.13762E-3,.1656E-4,0
STARLINK-30258,2023-119G,2024-09-27T20:14:14.925984,15.02554846,.0001172,43.0037,69.8167,264.0932,95.9776,0,U,57608,999,6367,-.21706E-3,-.3136E-4,0
STARLINK-30174,2023-119H,2024-09-27T12:04:25.896000,15.02537472,.0001124,43.0034,71.5637,261.6112,98.4603,0,U,57609,999,6362,-.129E-4,-.378E-5,0
STARLINK-30248,2023-119J,2024-09-27T18:32:08.010816,15.02536042,.0001245,43.0020,70.1464,270.4488,89.6211,0,U,57610,999,6367,.44976E-4,.404E-5,0
STARLINK-30052,2023-119K,2024-09-27T19:58:15.158496,15.02555729,.0001577,43.0030,69.7326,269.5452,90.5209,0,U,57611,999,6366,.38212E-3,.4964E-4,0
STARLINK-30245,2023-119L,2024-09-27T19:53:27.983904,15.02543455,.0001141,43.0035,69.7085,269.8939,90.1773,0,U,57612,999,6368,.12942E-3,.1545E-4,0
STARLINK-30041,2023-119M,2024-09-27T19:48:40.782528,15.02539591,.000126,43.0028,69.6832,276.3663,83.7035,0,U,57613,999,6368,.10442E-3,.1207E-4,0
STARLINK-30244,2023-119N,2024-09-27T19:43:52.948704,15.02566280,.0002244,43.0046,69.6581,268.9155,91.1430,0,U,57614,999,6368,-.47245E-3,-.6585E-4,0
STARLINK-30246,2023-119P,2024-09-27T19:39:05.469120,15.02535854,.000209,43.0046,69.6196,269.3875,90.6728,0,U,57615,999,6368,.13287E-3,.1591E-4,0
STARLINK-30075,2023-119Q,2024-09-27T17:58:44.583168,15.02533082,.000145,43.0033,70.8320,272.6954,87.3723,0,U,57616,999,6366,.11788E-3,.1389E-4,0
STARLINK-30148,2023-119R,2024-09-27T19:29:40.707744,15.02522763,.0001542,43.0028,70.4445,270.8837,89.1828,0,U,57617,999,6367,-.15183E-3,-.2253E-4,0
STARLINK-30249,2023-119S,2024-09-27T11:26:14.548992,15.02537498,.0000775,43.0038,72.2272,268.7401,91.3352,0,U,57618,999,6362,-.2959E-4,-.603E-5,0
STARLINK-30141,2023-119U,2024-09-27T19:08:54.004992,15.02536802,.0001218,43.0024,70.3353,262.1858,97.8846,0,U,57620,999,6367,-.32083E-4,-.637E-5,0
STARLINK-30150,2023-119V,2024-09-27T19:10:29.577216,15.02534424,.0001227,43.0020,70.3468,278.4268,81.6435,0,U,57621,999,6367,.285E-3,.3648E-4,0
STARLINK-30056,2023-119W,2024-09-27T19:05:41.225856,15.02541414,.0001054,43.0035,70.2922,271.8515,88.2206,0,U,57622,999,6367,.64087E-4,.662E-5,0
STARLINK-30100,2023-119X,2024-09-27T19:00:53.820576,15.02551400,.0001136,43.0027,70.2945,272.8665,87.2047,0,U,57623,999,6367,-.21818E-3,-.3151E-4,0
LUDI TANCE-4 01A,2023-120A,2024-09-27T08:02:02.310144,1.00275672,.0001926,15.6390,209.3186,3.3483,4.0826,0,U,57624,999,425,0,-.213E-5,0
HEAD-3A,2023-121A,2024-09-28T01:52:19.862688,14.58355576,.000673,45.0012,151.1343,258.6787,101.3313,0,U,57626,999,5994,.70042E-3,.3122E-4,0
HEAD-3B,2023-121B,2024-09-28T01:26:46.241088,14.59195838,.0005504,45.0021,148.7091,242.6465,117.3832,0,U,57627,999,5997,.67974E-3,.3083E-4,0
HEAD-3C,2023-121C,2024-09-28T02:16:20.853984,14.59831205,.0006052,44.9980,146.4407,238.8221,121.2043,0,U,57628,999,6000,.67969E-3,.3128E-4,0
HEAD-3D,2023-121D,2024-09-28T01:27:29.449728,14.60476624,.0007361,45.0034,144.8477,234.8068,125.2100,0,U,57629,999,6002,.68055E-3,.3178E-4,0
HEAD-3E,2023-121E,2024-09-28T01:22:22.902528,14.61269592,.0008036,45.0010,142.3951,220.1036,139.9229,0,U,57630,999,6005,.67545E-3,.3211E-4,0
STARLINK-30309,2023-122A,2024-09-27T19:58:00.759072,15.02537326,.0001383,43.0033,83.2676,267.2960,92.7724,0,U,57632,999,6277,.46767E-4,.428E-5,0
STARLINK-30306,2023-122B,2024-09-27T21:28:56.320320,15.02535592,.0001404,43.0034,82.8820,273.4224,86.6458,0,U,57633,999,6277,.18064E-3,.2237E-4,0
STARLINK-30323,2023-122C,2024-09-27T19:45:28.544256,15.02537869,.0001202,43.0027,69.6163,276.6983,83.3722,0,U,57634,999,6293,.74732E-4,.806E-5,0
STARLINK-30329,2023-122D,2024-09-27T19:48:25.374816,15.02531429,.0001191,43.0025,83.2177,277.6206,82.4501,0,U,57635,999,6277,.19956E-4,.66E-6,0
STARLINK-30330,2023-122E,2024-09-27T19:43:37.769952,15.02534397,.0001094,43.0021,83.1926,272.5954,87.4763,0,U,57636,999,6276,-.72307E-5,-.301E-5,0
