57603,STARLINK-30223,2023,95.84,-1.0,+,43.0,Active,0,LEO,USA,USA,Unknown,Unknown,Unknown,1 57603U 23119B   24271.78229955  .00002781  00000+0  22084-3 0  9996,2 57603  43.0040  70.2062 0001358 273.9156  86.1531 15.02537064 63669,15.02537064,0.0001358,LEO
57604,STARLINK-30218,2023,95.84,-1.0,+,43.0,Active,0,LEO,USA,USA,Unknown,Unknown,Unknown,1 57604U 23119C   24271.78896554  .00002410  00000+0  19347-3 0  9999,2 57604  43.0039  70.2703 0001649 261.8689  98.1966 15.02533401 63677,15.02533401,0.0001649,LEO
57605,STARLINK-30138,2023,95.84,-1.0,+,43.0,Active,0,LEO,USA,USA,Unknown,Unknown,Unknown,1 57605U 23119D   24271.78563679  .00001420  00000+0  12015-3 0  9994,2 57605  43.0040  70.2465 0001371 267.4136  92.6549 15.02533209 63678,15.02533209,0.0001371,LEO
57606,STARLINK-30255,2023,95.84,-1.0,+,43.0,Active,0,LEO,USA,USA,Unknown,Unknown,Unknown,1 57606U 23119E   24271.75788685  .00000426  00000+0  46639-4 0  9993,2 57606  43.0019  70.0415 0001313 278.5418  81.5275 15.02537180 63675,15.0253718,0.0001313,LEO
57607,STARLINK-30252,2023,95.84,-1.0,+,43.0,Active,0,LEO,USA,USA,Unknown,Unknown,Unknown,1 57607U 23119F   24271.72943786  .00001656  00000+0  13762-3 0  9992,2 57607  43.0036  57.9467 0001240 265.7267  94.3433 15.02538229 63814,15.02538229,0.000124,LEO
57608,STARLINK-30258,2023,95.84,-1.0,+,43.0,Active,0,LEO,USA,USA,Unknown,Unknown,Unknown,1 57608U 23119G   24271.84322831 -.00003136  00000+0 -21706-3 0  9992,2 57608  43.0037  69.8167 0001172 264.0932  95.9776 15.02554846 63674,15.02554846,0.0001172,LEO
57609,STARLINK-30174,2023,95.84,-1.0,+,43.0,Active,0,LEO,USA,USA,Unknown,Unknown,Unknown,1 57609U 23119H   24271.50307750 -.00000378  00000+0 -12900-4 0  9991,2 57609  43.0034  71.5637 0001124 261.6112  98.4603 15.02537472 63622,15.02537472,0.0001124,LEO
57610,STARLINK-30248,2023,95.84,-1.0,+,43.0,Active,0,LEO,USA,USA,Unknown,Unknown,Unknown,1 57610U 23119J   24271.77231494  .00000404  00000+0  44976-4 0  9999,2 57610  43.0020  70.1464 0001245 270.4488  89.6211 15.02536042 63674,15.02536042,0.0001245,LEO
57611,STARLINK-30052,2023,95.84,-1.0,+,43.0,Active,0,LEO,USA,USA,Unknown,Unknown,Unknown,1 57611U 23119K   24271.83211989  .00004964  00000+0  38212-3 0  9994,2 57611  43.0030  69.7326 0001577 269.5452  90.5209 15.02555729 63665,15.02555729,0.0001577,LEO
57612,STARLINK-30245,2023,95.84,-1.0,+,43.0,Active,0,LEO,USA,USA,Unknown,Unknown,Unknown,1 57612U 23119L   24271.82879611  .00001545  00000+0  12942-3 0  9990,2 57612  43.0035  69.7085 0001141 269.8939  90.1773 15.02543455 63680,15.02543455,0.0001141,LEO
57613,STARLINK-30041,2023,95.84,-1.0,+,43.0,Active,0,LEO,USA,USA,Unknown,Unknown,Unknown,1 57613U 23119M   24271.82547202  .00001207  00000+0  10442-3 0  9997,2 57613  43.0028  69.6832 0001260 276.3663  83.7035 15.02539591 63686,15.02539591,0.000126,LEO
57614,STARLINK-30244,2023,95.84,-1.0,+,43.0,Active,0,LEO,USA,USA,Unknown,Unknown,Unknown,1 57614U 23119N   24271.82214061 -.00006585  00000+0 -47245-3 0  9999,2 57614  43.0046  69.6581 0002244 268.9155  91.1430 15.02566280 63681,15.0256628,0.0002244,LEO
57615,STARLINK-30246,2023,95.84,-1.0,+,43.0,Active,0,LEO,USA,USA,Unknown,Unknown,Unknown,1 57615U 23119P   24271.81881330  .00001591  00000+0  13287-3 0  9997,2 57615  43.0046  69.6196 0002090 269.3875  90.6728 15.02535854 63684,15.02535854,0.000209,LEO
57616,STARLINK-30075,2023,95.84,-1.0,+,43.0,Active,0,LEO,USA,USA,Unknown,Unknown,Unknown,1 57616U 23119Q   24271.74912712  .00001389  00000+0  11788-3 0  9998,2 57616  43.0033  70.8320 0001450 272.6954  87.3723 15.02533082 63665,15.02533082,0.000145,LEO
57617,STARLINK-30148,2023,95.84,-1.0,+,43.0,Active,0,LEO,USA,USA,Unknown,Unknown,Unknown,1 57617U 23119R   24271.81227671 -.00002253  00000+0 -15183-3 0  9996,2 57617  43.0028  70.4445 0001542 270.8837  89.1828 15.02522763 63677,15.02522763,0.0001542,LEO
57618,STARLINK-30249,2023,95.84,-1.0,+,43.0,Active,0,LEO,USA,USA,Unknown,Unknown,Unknown,1 57618U 23119S   24271.47655728 -.00000603  00000+0 -29590-4 0  9992,2 57618  43.0038  72.2272 0000775 268.7401  91.3352 15.02537498 63620,15.02537498,7.75e-05,LEO
57620,STARLINK-30141,2023,95.84,-1.0,+,43.0,Active,0,LEO,USA,USA,Unknown,Unknown,Unknown,1 57620U 23119U   24271.79784728 -.00000637  00000+0 -32083-4 0  9991,2 57620  43.0024  70.3353 0001218 262.1858  97.8846 15.02536802 63676,15.02536802,0.0001218,LEO
57621,STARLINK-30150,2023,95.84,-1.0,+,43.0,Active,0,LEO,USA,USA,Unknown,Unknown,Unknown,1 57621U 23119V   24271.79895344  .00003648  00000+0  28500-3 0  9990,2 57621  43.0020  70.3468 0001227 278.4268  81.6435 15.02534424 63678,15.02534424,0.0001227,LEO
57622,STARLINK-30056,2023,95.84,-1.0,+,43.0,Active,0,LEO,USA,USA,Unknown,Unknown,Unknown,1 57622U 23119W   24271.79561604  .00000662  00000+0  64087-4 0  9994,2 57622  43.0035  70.2922 0001054 271.8515  88.2206 15.02541414 63675,15.02541414,0.0001054,LEO
57623,STARLINK-30100,2023,95.84,-1.0,+,43.0,Active,0,LEO,USA,USA,Unknown,Unknown,Unknown,1 57623U 23119X   24271.79228959 -.00003151  00000+0 -21818-3 0  9990,2 57623  43.0027  70.2945 0001136 272.8665  87.2047 15.02551400 63678,15.025514,0.0001136,LEO
57624,LUDI TANCE-4 01A,2023,1436.04,-1.0,+,15.64,Active,0,GSO,PRC,China,Unknown,Unknown,Unknown,1 57624U 23120A   24271.33474896 -.00000213  00000+0  00000+0 0  9997,2 57624  15.6390 209.3186 0001926   3.3483   4.0826  1.00275672  4259,1.00275672,0.0001926,GSO
57626,HEAD-3A,2023,98.74,-1.0,+,45.0,Active,0,LEO,PRC,China,Unknown,Unknown,Unknown,1 57626U 23121A   24272.07800767  .00003122  00000+0  70042-3 0  9990,2 57626  45.0012 151.1343 0006730 258.6787 101.3313 14.58355576 59945,14.58355576,0.000673,LEO
57627,HEAD-3B,2023,98.68,-1.0,+,45.0,Active,0,LEO,PRC,China,Unknown,Unknown,Unknown,1 57627U 23121B   24272.06025742  .00003083  00000+0  67974-3 0  9998,2 57627  45.0021 148.7091 0005504 242.6465 117.3832 14.59195838 59972,14.59195838,0.0005504,LEO
57628,HEAD-3C,2023,98.64,-1.0,+,45.0,Active,0,LEO,PRC,China,Unknown,Unknown,Unknown,1 57628U 23121C   24272.09468581  .00003128  00000+0  67969-3 0  9998,2 57628  44.9980 146.4407 0006052 238.8221 121.2043 14.59831205 60006,14.59831205,0.0006052,LEO
57629,HEAD-3D,2023,98.6,-1.0,+,45.0,Active,0,LEO,PRC,China,Unknown,Unknown,Unknown,1 57629U 23121D   24272.06075752  .00003178  00000+0  68055-3 0  9992,2 57629  45.0034 144.8477 0007361 234.8068 125.2100 14.60476624 60029,14.60476624,0.0007361,LEO
57630,HEAD-3E,2023,98.54,-1.0,+,45.0,Active,0,LEO,PRC,China,Unknown,Unknown,Unknown,1 57630U 23121E   24272.05720952  .00003211  00000+0  67545-3 0  9993,2 57630  45.0010 142.3951 0008036 220.1036 139.9229 14.61269592 60050,14.61269592,0.0008036,LEO
57632,STARLINK-30309,2023,95.83,-1.0,+,43.0,Active,0,LEO,USA,USA,Unknown,Unknown,Unknown,1 57632U 23122A   24271.83195323  .00000428  00000+0  46767-4 0  9990,2 57632  43.0033  83.2676 0001383 267.2960  92.7724 15.02537326 62774,15.02537326,0.0001383,LEO
57633,STARLINK-30306,2023,95.84,-1.0,+,43.0,Active,0,LEO,USA,USA,Unknown,Unknown,Unknown,1 57633U 23122B   24271.89509630  .00002237  00000+0  18064-3 0  9995,2 57633  43.0034  82.8820 0001404 273.4224  86.6458 15.02535592 62777,15.02535592,0.0001404,LEO
57634,STARLINK-30323,2023,95.84,-1.0,+,43.0,Active,0,LEO,USA,USA,Unknown,Unknown,Unknown,1 57634U 23122C   24271.82324704  .00000806  00000+0  74732-4 0  9991,2 57634  43.0027  69.6163 0001202 276.6983  83.3722 15.02537869 62931,15.02537869,0.0001202,LEO
57635,STARLINK-30329,2023,95.84,-1.0,+,43.0,Active,0,LEO,USA,USA,Unknown,Unknown,Unknown,1 57635U 23122D   24271.82529369  .00000066  00000+0  19956-4 0  9991,2 57635  43.0025  83.2177 0001191 277.6206  82.4501 15.02531429 62776,15.02531429,0.0001191,LEO
57636,STARLINK-30330,2023,95.84,-1.0,+,43.0,Active,0,LEO,USA,USA,Unknown,Unknown,Unknown,1 57636U 23122E   24271.82196493 -.00000301  00000+0 -72307-5 0  9994,2 57636  43.0021  83.1926 0001094 272.5954  87.4763 15.02534397 62761,15.02534397,0.0001094,LEO
